ONEWEB-0273             
1 48991U 21060AA  23318.58447495  .00000102  00000+0  23285-3 0  9998
2 48991  87.9091  56.9751 0001439 104.0010 256.1281 13.16595373116469
ONEWEB-0274             
1 48992U 21060AB  23318.68580219 -.00000252  00000+0 -69368-3 0  9992
2 48992  87.9090  56.9589 0001730  80.0720 280.0606 13.16593122115212
ONEWEB-0275             
1 48993U 21060AC  23318.52326270  .00000023  00000+0  27813-4 0  9995
2 48993  87.9085  56.9897 0001516 102.0748 258.0553 13.16591283115128
ONEWEB-0276             
1 48994U 21060AD  23318.70902716 -.00000030  00000+0 -11213-3 0  9997
2 48994  87.9088  56.9435 0001269 105.3516 254.7755 13.16594433115165
ONEWEB-0277             
1 48995U 21060AE  23319.32966518  .00000151  00000+0  36166-3 0  9993
2 48995  87.9095  56.8610 0001120 106.5333 253.5921 13.16594634116520
ONEWEB-0278             
1 48996U 21060AF  23318.55914175  .00000114  00000+0  26562-3 0  9998
2 48996  87.9091  56.9699 0001830 112.3237 247.8088 13.16593982116571
ONEWEB-0279             
1 48997U 21060AG  23318.56760060  .00000928  00000+0  23951-2 0  9993
2 48997  87.9088  56.9658 0001858 103.1303 257.0036 13.16588587116497
ONEWEB-0280             
1 48998U 21060AH  23318.58237277  .00000095  00000+0  21376-3 0  9990
2 48998  87.9092  56.9634 0001090  81.2793 278.8461 13.16595077116422
